0 COSMOS 839 DEB
1 10415U 76067J   13283.47209229 -.00000166  00000-0 -54889-3 0  8507
2 10415 065.8376 163.2173 0674316 090.7505 332.0875 12.18764122658746
0 COSMOS 839 DEB
1 10415U 76067J   13285.77234471 -.00000064  00000-0 -61385-4 0  8517
2 10415 065.8370 158.8904 0674308 089.8737 344.5742 12.18763023659021
0 COSMOS 839 DEB
1 10415U 76067J   13287.82588258  .00000125  00000-0  84392-3 0  8529
2 10415 065.8365 155.0276 0674324 089.0914 354.5863 12.18761767659278
0 COSMOS 839 DEB
1 10415U 76067J   13289.87876481  .00000130  00000-0  86951-3 0  8534
2 10415 065.8362 151.1658 0674389 088.3116 001.7072 12.18761902659525
0 COSMOS 839 DEB
1 10415U 76067J   13292.02492443 -.00000041  00000-0  51820-4 0  8548
2 10415 065.8362 147.1285 0674412 087.4953 058.0807 12.18763650659783
0 COSMOS 839 DEB
1 10415U 76067J   13294.06143758 -.00000196  00000-0 -68985-3 0  8558
2 10415 065.8362 143.2974 0674409 086.7201 353.3856 12.18765031660039
0 COSMOS 839 DEB
1 10415U 76067J   13296.19839247 -.00000005  00000-0  22460-3 0  8566
2 10415 065.8358 139.2762 0674487 085.8963 009.4175 12.18762596660299
